{"fetched_at":"2026-07-06T08:46:35.713Z","source":"https://celestrak.org/NORAD/elements/gp.php?GROUP=kuiper&FORMAT=JSON","constellation":"kuiper","records":[{"OBJECT_NAME":"KUIPER-00080","OBJECT_ID":"2025-151M","EPOCH":"2026-07-05T07:05:53.079072","CLASSIFICATION_TYPE":"U","MEAN_MOTION":14.79927518,"ECCENTRICITY":0.0000786,"INCLINATION":51.8985,"RA_OF_ASC_NODE":140.51,"ARG_OF_PERICENTER":100.9074,"MEAN_ANOMALY":259.1976,"EPHEMERIS_TYPE":0,"NORAD_CAT_ID":64827,"ELEMENT_SET_NO":999,"REV_AT_EPOCH":5272,"BSTAR":0.00048239,"MEAN_MOTION_DOT":0.00003458,"MEAN_MOTION_DDOT":0},{"OBJECT_NAME":"KUIPER-00082","OBJECT_ID":"2025-151N","EPOCH":"2026-07-05T04:59:26.335680","CLASSIFICATION_TYPE":"U","MEAN_MOTION":14.79943653,"ECCENTRICITY":0.0000794,"INCLINATION":51.9006,"RA_OF_ASC_NODE":128.4496,"ARG_OF_PERICENTER":75.7984,"MEAN_ANOMALY":284.3067,"EPHEMERIS_TYPE":0,"NORAD_CAT_ID":64828,"ELEMENT_SET_NO":999,"REV_AT_EPOCH":5288,"BSTAR":0.00085369,"MEAN_MOTION_DOT":0.00006294,"MEAN_MOTION_DDOT":0},{"OBJECT_NAME":"KUIPER-00083","OBJECT_ID":"2025-151P","EPOCH":"2026-07-05T06:25:02.671392","CLASSIFICATION_TYPE":"U","MEAN_MOTION":14.79931052,"ECCENTRICITY":0.0000782,"INCLINATION":51.8995,"RA_OF_ASC_NODE":135.6718,"ARG_OF_PERICENTER":94.5402,"MEAN_ANOMALY":265.5649,"EPHEMERIS_TYPE":0,"NORAD_CAT_ID":64829,"ELEMENT_SET_NO":999,"REV_AT_EPOCH":5397,"BSTAR":0.0001931,"MEAN_MOTION_DOT":0.00001251,"MEAN_MOTION_DDOT":0},{"OBJECT_NAME":"KUIPER-00084","OBJECT_ID":"2025-151Q","EPOCH":"2026-07-05T06:09:30.277152","CLASSIFICATION_TYPE":"U","MEAN_MOTION":14.79931295,"ECCENTRICITY":0.000066,"INCLINATION":51.8989,"RA_OF_ASC_NODE":145.7018,"ARG_OF_PERICENTER":77.871,"MEAN_ANOMALY":282.2326,"EPHEMERIS_TYPE":0,"NORAD_CAT_ID":64830,"ELEMENT_SET_NO":999,"REV_AT_EPOCH":5264,"BSTAR":0.00025388,"MEAN_MOTION_DOT":0.00001715,"MEAN_MOTION_DDOT":0},{"OBJECT_NAME":"KUIPER-00085","OBJECT_ID":"2025-151R","EPOCH":"2026-07-05T05:48:04.423104","CLASSIFICATION_TYPE":"U","MEAN_MOTION":14.79944572,"ECCENTRICITY":0.0000731,"INCLINATION":51.9024,"RA_OF_ASC_NODE":128.3454,"ARG_OF_PERICENTER":96.6949,"MEAN_ANOMALY":263.4096,"EPHEMERIS_TYPE":0,"NORAD_CAT_ID":64831,"ELEMENT_SET_NO":999,"REV_AT_EPOCH":5288,"BSTAR":0.00083322,"MEAN_MOTION_DOT":0.00006138,"MEAN_MOTION_DDOT":0},{"OBJECT_NAME":"KUIPER-00086","OBJECT_ID":"2025-151S","EPOCH":"2026-07-05T05:32:32.407296","CLASSIFICATION_TYPE":"U","MEAN_MOTION":14.7993137,"ECCENTRICITY":0.0000725,"INCLINATION":51.9002,"RA_OF_ASC_NODE":138.3416,"ARG_OF_PERICENTER":91.2292,"MEAN_ANOMALY":268.8753,"EPHEMERIS_TYPE":0,"NORAD_CAT_ID":64832,"ELEMENT_SET_NO":999,"REV_AT_EPOCH":5274,"BSTAR":0.00070703,"MEAN_MOTION_DOT":0.00005173,"MEAN_MOTION_DDOT":0},{"OBJECT_NAME":"KUIPER-00087","OBJECT_ID":"2025-151T","EPOCH":"2026-07-05T04:22:28.102080","CLASSIFICATION_TYPE":"U","MEAN_MOTION":14.79940306,"ECCENTRICITY":0.0000701,"INCLINATION":51.9003,"RA_OF_ASC_NODE":121.0214,"ARG_OF_PERICENTER":103.0937,"MEAN_ANOMALY":257.0103,"EPHEMERIS_TYPE":0,"NORAD_CAT_ID":64833,"ELEMENT_SET_NO":999,"REV_AT_EPOCH":5297,"BSTAR":0.00031535,"MEAN_MOTION_DOT":0.00002184,"MEAN_MOTION_DDOT":0},{"OBJECT_NAME":"KUIPER-00089","OBJECT_ID":"2025-151U","EPOCH":"2026-07-05T05:51:57.278880","CLASSIFICATION_TYPE":"U","MEAN_MOTION":14.79930856,"ECCENTRICITY":0.0000765,"INCLINATION":51.8977,"RA_OF_ASC_NODE":125.7673,"ARG_OF_PERICENTER":100.8225,"MEAN_ANOMALY":259.2823,"EPHEMERIS_TYPE":0,"NORAD_CAT_ID":64834,"ELEMENT_SET_NO":999,"REV_AT_EPOCH":5292,"BSTAR":0.00025807,"MEAN_MOTION_DOT":0.00001747,"MEAN_MOTION_DDOT":0},{"OBJECT_NAME":"KUIPER-00091","OBJECT_ID":"2025-151W","EPOCH":"2026-07-05T01:04:05.397024","CLASSIFICATION_TYPE":"U","MEAN_MOTION":14.79936915,"ECCENTRICITY":0.0000789,"INCLINATION":51.9003,"RA_OF_ASC_NODE":124.1676,"ARG_OF_PERICENTER":83.5206,"MEAN_ANOMALY":276.5846,"EPHEMERIS_TYPE":0,"NORAD_CAT_ID":64836,"ELEMENT_SET_NO":999,"REV_AT_EPOCH":5292,"BSTAR":0.00091206,"MEAN_MOTION_DOT":0.00006739,"MEAN_MOTION_DDOT":0},{"OBJECT_NAME":"KUIPER-00092","OBJECT_ID":"2025-151X","EPOCH":"2026-07-05T05:44:11.190624","CLASSIFICATION_TYPE":"U","MEAN_MOTION":14.79941939,"ECCENTRICITY":0.0000705,"INCLINATION":51.8995,"RA_OF_ASC_NODE":130.7991,"ARG_OF_PERICENTER":90.3761,"MEAN_ANOMALY":269.7282,"EPHEMERIS_TYPE":0,"NORAD_CAT_ID":64837,"ELEMENT_SET_NO":999,"REV_AT_EPOCH":5406,"BSTAR":0.00086438,"MEAN_MOTION_DOT":0.00006376,"MEAN_MOTION_DDOT":0},{"OBJECT_NAME":"KUIPER-00093","OBJECT_ID":"2025-151Y","EPOCH":"2026-07-05T05:40:18.049728","CLASSIFICATION_TYPE":"U","MEAN_MOTION":14.79931111,"ECCENTRICITY":0.0000782,"INCLINATION":51.8988,"RA_OF_ASC_NODE":133.2864,"ARG_OF_PERICENTER":82.3689,"MEAN_ANOMALY":277.7362,"EPHEMERIS_TYPE":0,"NORAD_CAT_ID":64838,"ELEMENT_SET_NO":999,"REV_AT_EPOCH":5281,"BSTAR":0.00026209,"MEAN_MOTION_DOT":0.00001777,"MEAN_MOTION_DDOT":0},{"OBJECT_NAME":"KUIPER-00094","OBJECT_ID":"2025-151Z","EPOCH":"2026-07-05T03:35:31.898400","CLASSIFICATION_TYPE":"U","MEAN_MOTION":14.80012342,"ECCENTRICITY":0.0000597,"INCLINATION":51.903,"RA_OF_ASC_NODE":88.7544,"ARG_OF_PERICENTER":119.9333,"MEAN_ANOMALY":240.1689,"EPHEMERIS_TYPE":0,"NORAD_CAT_ID":64839,"ELEMENT_SET_NO":999,"REV_AT_EPOCH":5343,"BSTAR":0.00073425,"MEAN_MOTION_DOT":0.00005391,"MEAN_MOTION_DDOT":0},{"OBJECT_NAME":"KUIPER-00081","OBJECT_ID":"2025-171A","EPOCH":"2026-07-05T11:51:22.248864","CLASSIFICATION_TYPE":"U","MEAN_MOTION":14.79934534,"ECCENTRICITY":0.0000697,"INCLINATION":51.9006,"RA_OF_ASC_NODE":347.1431,"ARG_OF_PERICENTER":111.3616,"MEAN_ANOMALY":248.7421,"EPHEMERIS_TYPE":0,"NORAD_CAT_ID":65132,"ELEMENT_SET_NO":999,"REV_AT_EPOCH":5048,"BSTAR":0.00040781,"MEAN_MOTION_DOT":0.00002889,"MEAN_MOTION_DDOT":0},{"OBJECT_NAME":"KUIPER-00095","OBJECT_ID":"2025-171C","EPOCH":"2026-07-05T11:55:15.744000","CLASSIFICATION_TYPE":"U","MEAN_MOTION":14.7993794,"ECCENTRICITY":0.0000629,"INCLINATION":51.8989,"RA_OF_ASC_NODE":344.6832,"ARG_OF_PERICENTER":93.7471,"MEAN_ANOMALY":266.3563,"EPHEMERIS_TYPE":0,"NORAD_CAT_ID":65134,"ELEMENT_SET_NO":999,"REV_AT_EPOCH":5051,"BSTAR":0.00048467,"MEAN_MOTION_DOT":0.00003476,"MEAN_MOTION_DDOT":0}]}
