[{"name":"KUIPER-00080","l1":"1 64827U 25151M   26186.29575323  .00003458  00000+0  48239-3 0  9998","l2":"2 64827  51.8985 140.5100 0000786 100.9074 259.1976 14.79927518 52726","cat":"other"},{"name":"KUIPER-00082","l1":"1 64828U 25151N   26186.20794370  .00006294  00000+0  85369-3 0  9991","l2":"2 64828  51.9006 128.4496 0000794  75.7984 284.3067 14.79943653 52889","cat":"other"},{"name":"KUIPER-00083","l1":"1 64829U 25151P   26186.26739203  .00001251  00000+0  19310-3 0  9993","l2":"2 64829  51.8995 135.6718 0000782  94.5402 265.5649 14.79931052 53972","cat":"other"},{"name":"KUIPER-00084","l1":"1 64830U 25151Q   26186.25660043  .00001715  00000+0  25388-3 0  9996","l2":"2 64830  51.8989 145.7018 0000660  77.8710 282.2326 14.79931295 52643","cat":"other"},{"name":"KUIPER-00085","l1":"1 64831U 25151R   26186.24171786  .00006138  00000+0  83322-3 0  9993","l2":"2 64831  51.9024 128.3454 0000731  96.6949 263.4096 14.79944572 52881","cat":"other"},{"name":"KUIPER-00086","l1":"1 64832U 25151S   26186.23093064  .00005173  00000+0  70703-3 0  9992","l2":"2 64832  51.9002 138.3416 0000725  91.2292 268.8753 14.79931370 52748","cat":"other"},{"name":"KUIPER-00087","l1":"1 64833U 25151T   26186.18226970  .00002184  00000+0  31535-3 0  9990","l2":"2 64833  51.9003 121.0214 0000701 103.0937 257.0103 14.79940306 52970","cat":"other"},{"name":"KUIPER-00089","l1":"1 64834U 25151U   26186.24441295  .00001747  00000+0  25807-3 0  9996","l2":"2 64834  51.8977 125.7673 0000765 100.8225 259.2823 14.79930856 52922","cat":"other"},{"name":"KUIPER-00091","l1":"1 64836U 25151W   26186.04450691  .00006739  00000+0  91206-3 0  9998","l2":"2 64836  51.9003 124.1676 0000789  83.5206 276.5846 14.79936915 52922","cat":"other"},{"name":"KUIPER-00092","l1":"1 64837U 25151X   26186.23901841  .00006376  00000+0  86438-3 0  9996","l2":"2 64837  51.8995 130.7991 0000705  90.3761 269.7282 14.79941939 54062","cat":"other"},{"name":"KUIPER-00093","l1":"1 64838U 25151Y   26186.23632002  .00001777  00000+0  26209-3 0  9997","l2":"2 64838  51.8988 133.2864 0000782  82.3689 277.7362 14.79931111 52817","cat":"other"},{"name":"KUIPER-00094","l1":"1 64839U 25151Z   26186.14967475  .00005391  00000+0  73425-3 0  9991","l2":"2 64839  51.9030  88.7544 0000597 119.9333 240.1689 14.80012342 53436","cat":"other"},{"name":"KUIPER-00081","l1":"1 65132U 25171A   26186.49400751  .00002889  00000+0  40781-3 0  9995","l2":"2 65132  51.9006 347.1431 0000697 111.3616 248.7421 14.79934534 50488","cat":"other"},{"name":"KUIPER-00095","l1":"1 65134U 25171C   26186.49671000  .00003476  00000+0  48467-3 0  9996","l2":"2 65134  51.8989 344.6832 0000629  93.7471 266.3563 14.79937940 50514","cat":"other"}]